[{"name":"GAOFEN-4","l1":"1 41194U 15083A   26182.60549609 -.00000324  00000+0  00000+0 0  9992","l2":"2 41194   0.3936  83.8387 0004243 111.7154  47.7566  1.00268667 38677","cat":"geostationary"},{"name":"HODOYOSHI-4","l1":"1 40011U 14033B   26183.76808616  .00000973  00000+0  11088-3 0  9998","l2":"2 40011  97.5449   7.8386 0022034 253.4543 106.4254 14.88162501651128","cat":"other"},{"name":"DEIMOS-2","l1":"1 40013U 14033D   26183.72424172  .00001488  00000+0  14559-3 0  9995","l2":"2 40013  97.5804  57.6659 0000832  74.1206 286.0106 14.93765014640041","cat":"other"},{"name":"HODOYOSHI-3","l1":"1 40015U 14033F   26183.40907352  .00001061  00000+0  12818-3 0  9991","l2":"2 40015  97.6433 345.8382 0031571 306.0133  53.8157 14.85418387649883","cat":"other"},{"name":"SPOT 7","l1":"1 40053U 14034A   26183.72852119  .00000442  00000+0  99490-4 0  9993","l2":"2 40053  98.0623 245.8195 0001426  96.0598 264.0766 14.60971734639401","cat":"science"},{"name":"SKYSAT-B","l1":"1 40072U 14037D   26183.45653094  .00001487  00000+0  16840-3 0  9995","l2":"2 40072  98.3846 143.2927 0004586 217.7450 142.3444 14.88066717648233","cat":"other"},{"name":"WORLDVIEW-3 (WV-3)","l1":"1 40115U 14048A   26183.73209829  .00001039  00000+0  12793-3 0  9995","l2":"2 40115  97.8562 258.3502 0000290 168.5012 191.6209 14.85048174644216","cat":"science"},{"name":"GAOFEN-2","l1":"1 40118U 14049A   26183.78440317  .00000107  00000+0  20803-4 0  9990","l2":"2 40118  98.0104 247.9763 0007246 171.9132 188.2198 14.80913291641544","cat":"other"},{"name":"YAOGAN-21","l1":"1 40143U 14053A   26183.76409059  .00006357  00000+0  24516-3 0  9996","l2":"2 40143  97.1462 223.3318 0009183  48.0519 312.1502 15.26604450657334","cat":"classified"},{"name":"YAOGAN-22","l1":"1 40275U 14063A   26183.70010250 -.00000046  00000+0  33735-5 0  9993","l2":"2 40275 100.7745 335.2322 0006670 151.5172 208.6305 13.15531196561859","cat":"classified"},{"name":"ASNARO","l1":"1 40298U 14070A   26183.76608050  .00008369  00000+0  39507-3 0  9999","l2":"2 40298  97.3447 259.4607 0006600 120.5909 239.5977 15.19667243646372","cat":"other"},{"name":"YAOGAN-24","l1":"1 40310U 14072A   26183.74020007  .00001014  00000+0  15449-3 0  9993","l2":"2 40310  98.1511 321.2097 0013609 210.4704 149.5716 14.76105206626016","cat":"classified"},{"name":"CBERS 4","l1":"1 40336U 14079A   26183.78982985 -.00000030  00000+0  41825-5 0  9991","l2":"2 40336  98.3524 240.1315 0001320  51.2104 308.9200 14.35512802606199","cat":"science"},{"name":"YAOGAN-26","l1":"1 40362U 14088A   26183.78049036  .00020246  00000+0  38873-3 0  9998","l2":"2 40362  97.0641 183.6296 0003868  31.1690 328.9790 15.47985828640111","cat":"classified"},{"name":"SMAP","l1":"1 40376U 15003A   26183.73800876  .00000516  00000+0  10883-3 0  9992","l2":"2 40376  98.1277 190.6122 0001484  97.6036 262.5335 14.63380634609891","cat":"other"},{"name":"KOMPSAT-3A","l1":"1 40536U 15014A   26183.75686279  .00031704  00000+0  44374-3 0  9998","l2":"2 40536  97.6887 176.2660 0057140 119.2229 241.4756 15.54787847624238","cat":"science"},{"name":"SENTINEL-2A","l1":"1 40697U 15028A   26183.73916833  .00000342  00000+0  14718-3 0  9994","l2":"2 40697  98.5685 258.3700 0001202  93.8956 266.2364 14.30820522575956","cat":"science"},{"name":"GAOFEN-8","l1":"1 40701U 15030A   26183.81371351  .00023026  00000+0  46389-3 0  9995","l2":"2 40701  97.6891  18.1269 0009674 133.6428 226.5624 15.46534262613863","cat":"other"},{"name":"CARBONITE 1 (CBNT-1)","l1":"1 40718U 15032D   26183.76223106  .00001644  00000+0  20521-3 0  9995","l2":"2 40718  97.6508   1.1766 0013034 241.4631 118.5272 14.83634002591653","cat":"other"},{"name":"YAOGAN-27","l1":"1 40878U 15040A   26183.76486764  .00000102  00000+0  37982-3 0  9999","l2":"2 40878 100.1157 169.4719 0008156 173.0844 187.0384 13.16072008519710","cat":"classified"},{"name":"GAOFEN-9 01","l1":"1 40894U 15047A   26183.78474584  .00001224  00000+0  15608-3 0  9990","l2":"2 40894  97.6268 218.7704 0028898  89.1259 271.3266 14.82915465582505","cat":"other"},{"name":"YAOGAN-28","l1":"1 41026U 15064A   26183.78267561  .00007899  00000+0  29458-3 0  9994","l2":"2 41026  97.3099 321.7294 0011789 131.5915 228.6337 15.27622686593060","cat":"classified"},{"name":"YAOGAN-29","l1":"1 41038U 15069A   26183.76287713  .00000292  00000+0  42536-4 0  9994","l2":"2 41038  98.0017 212.4196 0001693  29.2888 330.8420 14.83096582572936","cat":"classified"},{"name":"KENT RIDGE 1","l1":"1 41167U 15077B   26183.55217512  .00004552  00000+0  15511-3 0  9998","l2":"2 41167  14.9783 151.7072 0008149  96.0484 264.0766 15.23222620583449","cat":"other"},{"name":"JASON-3","l1":"1 41240U 16002A   26183.76975041 -.00000037  00000+0  99072-4 0  9990","l2":"2 41240  66.0417  93.0758 0008308 271.8824  88.1243 12.87623278489250","cat":"other"},{"name":"SENTINEL-3A","l1":"1 41335U 16011A   26183.78540397  .00000136  00000+0  74130-4 0  9996","l2":"2 41335  98.6243 250.9446 0001424  94.5216 265.6127 14.26737057540288","cat":"science"},{"name":"ZIYUAN 3-02 (ZY 3-02)","l1":"1 41556U 16033A   26183.77879848  .00005691  00000+0  25671-3 0  9996","l2":"2 41556  97.3832 259.2532 0012880 230.2490 129.7612 15.21328985560353","cat":"other"},{"name":"CARTOSAT-2C","l1":"1 41599U 16040A   26183.40686126  .00003399  00000+0  16404-3 0  9993","l2":"2 41599  97.4476 243.1756 0010537  85.9757 274.2682 15.19310275556025","cat":"science"},{"name":"SKYSAT-C1","l1":"1 41601U 16040C   26183.00064639  .00010682  00000+0  30140-3 0  9998","l2":"2 41601  96.9550 213.9188 0001877  25.1186 335.0150 15.36552453560148","cat":"other"},{"name":"LAPAN-A3","l1":"1 41603U 16040E   26183.79007981  .00004300  00000+0  13626-3 0  9993","l2":"2 41603  97.1492 179.4242 0008961 329.2381  30.8336 15.33207386557209","cat":"other"},{"name":"GAOFEN-3","l1":"1 41727U 16049A   26183.76340109 -.00000082  00000+0 -11578-4 0  9998","l2":"2 41727  98.4007 191.3140 0001691  94.2083 265.9300 14.42216937520891","cat":"other"}]